CUTE-1 (CO-55)          
1 27844U 03031E   26162.97931317  .00000243  00000+0  12418-3 0  9996
2 27844  98.6735 171.6035 0009162 193.3973 166.6964 14.24332546190935
CUBESAT XI-IV (CO-57)   
1 27848U 03031J   26162.96515925  .00000209  00000+0  11102-3 0  9993
2 27848  98.6768 171.3067 0008710 213.1482 146.9152 14.23618048190631
CUBESAT XI-V            
1 28895U 05043F   26162.96687193  .00001171  00000+0  19211-3 0  9996
2 28895  98.2978 318.4792 0013339 218.0052 142.0215 14.72617350100987
CUTE-1.7+APD II (CO-65) 
1 32785U 08021C   26162.94544593  .00004770  00000+0  30225-3 0  9998
2 32785  97.8271 144.2548 0010282  54.9018 305.3173 15.09404820984409
CANX-2                  
1 32790U 08021H   26162.90496404  .00003570  00000+0  25195-3 0  9994
2 32790  97.8618 142.5795 0011651  66.0447 294.1998 15.05574034984014
SEEDS II (CO-66)        
1 32791U 08021J   26162.97785709  .00016592  00000+0  52956-3 0  9994
2 32791  97.7516 160.6273 0001854  21.0247 339.1070 15.32573857986493
SWISSCUBE               
1 35932U 09051B   26162.21632552  .00000804  00000+0  16844-3 0  9997
2 35932  98.4041  70.0006 0005629 224.4191 135.6559 14.62470076888283
BEESAT-1                
1 35933U 09051C   26162.70183136  .00000710  00000+0  15245-3 0  9991
2 35933  98.3970  70.1415 0003979 238.6332 121.4479 14.61711768888389
ITUPSAT1                
1 35935U 09051E   26162.20832686  .00000614  00000+0  13683-3 0  9996
2 35935  98.4055  68.8386 0006132 256.4621 103.5895 14.60431670887865
TISAT 1                 
1 36799U 10035E   26162.82520251  .00018314  00000+0  60400-3 0  9994
2 36799  98.0703 108.8988 0000614 171.8876 188.2374 15.31505965866883
AEROCUBE 4.5A           
1 38767U 12048K   26162.82948894  .00362564  56838-4  10784-2 0  9997
2 38767  64.6260  46.4498 0019620 218.8257 141.1495 15.91860725371801
STRAND-1                
1 39090U 13009E   26162.48626012  .00000258  00000+0  10129-3 0  9990
2 39090  98.3921 342.8611 0007504 244.6927 115.3483 14.37160014696249
BRITE-AUSTRIA           
1 39091U 13009F   26162.42702338  .00000141  00000+0  62670-4 0  9991
2 39091  98.3993 342.0054 0008992 255.9460 104.0727 14.36539758696229
NEE-01 PEGASO           
1 39151U 13018B   26162.37036833  .00001781  00000+0  17424-3 0  9999
2 39151  98.1214 306.3290 0012644 177.4473 182.6812 14.93633706709836
POPACS 2                
1 39269U 13055E   26161.26452525  .00012321  00000+0  20956-3 0  9993
2 39269  80.9903 152.1156 0417121 216.0318 141.2122 14.91044989662183
POPACS 3                
1 39270U 13055F   26162.62212000  .00010143  00000+0  23842-3 0  9995
2 39270  81.0021 235.2194 0552651  86.9304 279.4954 14.56023188637740
ZACUBE-1 (TSHEPISOSAT)  
1 39417U 13066B   26162.80818086  .00003114  00000+0  24384-3 0  9998
2 39417  97.8084 125.1158 0040239 266.5236  93.1385 15.01156095679928
WNISAT-1                
1 39423U 13066H   26162.92688040  .00000646  00000+0  12670-3 0  9995
2 39423  97.7195 312.4567 0161766 248.2857 110.1055 14.58053737665960
TRITON-1                
1 39427U 13066M   26162.82555297  .00001195  00000+0  14883-3 0  9993
2 39427  97.8248  72.7544 0088373 251.6952 107.4631 14.81685120673298
GOMX-1                  
1 39430U 13066Q   26162.94273889  .00002429  00000+0  36756-3 0  9998
2 39430  97.6493   3.7373 0130194  94.1785 267.4313 14.69442724669149
CUBEBUG-2 (LO-74)       
1 39440U 13066AA  26162.77121378  .00003584  00000+0  33291-3 0  9999
2 39440  97.8899 111.7263 0058871  46.5267 314.0826 14.93717789676180
NEE-02 KRYSAOR          
1 39441U 13066AB  26162.82452947  .00001879  00000+0  20954-3 0  9992
2 39441  97.8890 102.0776 0067744  87.3713 273.5255 14.86594877675404
FUNCUBE-1 (AO-73)       
1 39444U 13066AE  26162.55441071  .00005554  00000+0  34659-3 0  9992
2 39444  97.8262 133.8824 0035145 220.5848 139.2760 15.09420112678819
UWE-3                   
1 39446U 13066AG  26162.80152354  .00003900  00000+0  33652-3 0  9990
2 39446  97.8684 118.8390 0048431 339.1228  20.8015 14.96981046676775
BRITE-CA1 (TORONTO)     
1 40020U 14033L   26162.94194070  .00000565  00000+0  92884-4 0  9998
2 40020  97.9732 291.9667 0077330 294.1123  65.2011 14.72669387641444
DUCHIFAT-1              
1 40021U 14033M   26162.90348570  .00096111  00000+0  10289-2 0  9990
2 40021  98.0478 221.3257 0003943 124.8208 235.3420 15.63537353654927
NANOSATC-BR1            
1 40024U 14033Q   26162.65133324  .00015719  00000+0  52256-3 0  9990
2 40024  98.0728 194.5490 0003876 177.6886 182.4372 15.31280018653139
QB50P1                  
1 40025U 14033R   26162.94335838  .00007108  00000+0  35124-3 0  9995
2 40025  98.0964 173.7217 0007337 235.8215 124.2322 15.18181286652238
QB50P2                  
1 40032U 14033Y   26162.94879055  .00006473  00000+0  34946-3 0  9992
2 40032  98.0747 159.5029 0007462 180.5021 179.6203 15.15091872651877
PERSEUS-M2              
1 40037U 14033AD  26162.91119260  .00000619  00000+0  61439-4 0  9993
2 40037  97.9958 113.3444 0011253 324.2402  35.8063 14.95493339649994
